NORAD_CAT_ID,OBJECT_NAME,OBJECT_TYPE,EPOCH,MEAN_MOTION,ECCENTRICITY,INCLINATION,RA_OF_ASC_NODE,ARG_OF_PERICENTER,MEAN_ANOMALY,BSTAR,MEAN_MOTION_DOT,MEAN_MOTION_DDOT,TLE_LINE0,TLE_LINE1,TLE_LINE2,SEMIMAJOR_AXIS,PERIOD,APOGEE,PERIGEE,DECAYED
52488.0,STARLINK-3892,PAYLOAD,2023-10-07 13:45:49,15.08844046,0.000157,53.2176,68.0719,96.2787,263.8384,0.00024647,3.637e-05,0.0,0 STARLINK-3892,1 52488U 22049AP  23280.57348858  .00003637  00000-0  24647-3 0  9992,2 52488  53.2176  68.0719 0001570  96.2787 263.8384 15.08844046 78780,6917.868,95.437,540.819,538.647,0.0
52488.0,STARLINK-3892,PAYLOAD,2023-10-07 20:07:21,15.08858601,0.0001451,53.217,66.8827,86.4182,273.6977,0.00049971,7.678e-05,0.0,0 STARLINK-3892,1 52488U 22049AP  23280.83844344  .00007678  00000-0  49971-3 0  9998,2 52488  53.2170  66.8827 0001451  86.4182 273.6977 15.08858601 78989,6917.824,95.436,540.692,538.685,0.0
52488.0,STARLINK-3892,PAYLOAD,2023-10-08 02:28:54,15.08846229,0.0001338,53.2166,65.6885,76.8784,283.2358,0.00025228,3.73e-05,0.0,0 STARLINK-3892,1 52488U 22049AP  23281.10340625  .00003730  00000-0  25228-3 0  9996,2 52488  53.2166  65.6885 0001338  76.8784 283.2358 15.08846229 79029,6917.861,95.437,540.652,538.801,0.0
52488.0,STARLINK-3892,PAYLOAD,2023-10-08 13:36:36,15.08838846,0.0001337,53.2174,63.612,84.5843,275.5302,1.1715e-05,-1.01e-06,0.0,0 STARLINK-3892,1 52488U 22049AP  23281.56708988 -.00000101  00000-0  11715-4 0  9993,2 52488  53.2174  63.6120 0001337  84.5843 275.5302 15.08838846 78937,6917.884,95.438,540.674,538.824,0.0
52488.0,STARLINK-3892,PAYLOAD,2023-10-08 19:58:08,15.088491,0.0001285,53.2164,62.4231,87.389,272.725,0.00027601,4.109e-05,0.0,0 STARLINK-3892,1 52488U 22049AP  23281.83204632  .00004109  00000-0  27601-3 0  9991,2 52488  53.2164  62.4231 0001285  87.3890 272.7250 15.08849100 78971,6917.853,95.437,540.607,538.829,0.0
52488.0,STARLINK-3892,PAYLOAD,2023-10-09 02:19:41,15.08847932,0.0001335,53.2173,61.233,79.4801,280.6341,0.00029957,4.484e-05,0.0,0 STARLINK-3892,1 52488U 22049AP  23282.09700670  .00004484  00000-0  29957-3 0  9995,2 52488  53.2173  61.2330 0001335  79.4801 280.6341 15.08847932 79171,6917.856,95.437,540.645,538.798,0.0
52488.0,STARLINK-3892,PAYLOAD,2023-10-09 08:41:14,15.08839823,0.0002054,53.2182,60.0428,83.8261,276.2965,0.00014922,2.087e-05,0.0,0 STARLINK-3892,1 52488U 22049AP  23282.36197107  .00002087  00000-0  14922-3 0  9993,2 52488  53.2182  60.0428 0002054  83.8261 276.2965 15.08839823 79212,6917.881,95.438,541.167,538.325,0.0
52488.0,STARLINK-3892,PAYLOAD,2023-10-09 13:27:23,15.08836339,0.0001896,53.2176,59.1509,82.2551,277.8656,0.00015321,2.151e-05,0.0,0 STARLINK-3892,1 52488U 22049AP  23282.56069230  .00002151  00000-0  15321-3 0  9996,2 52488  53.2176  59.1509 0001896  82.2551 277.8656 15.08836339 79080,6917.892,95.438,541.068,538.445,0.0
52488.0,STARLINK-3892,PAYLOAD,2023-10-09 16:38:09,15.08841722,0.0001704,53.2184,58.5572,79.2295,280.8889,0.00016877,2.399e-05,0.0,0 STARLINK-3892,1 52488U 22049AP  23282.69317110  .00002399  00000-0  16877-3 0  9994,2 52488  53.2184  58.5572 0001704  79.2295 280.8889 15.08841722 79108,6917.875,95.437,540.919,538.561,0.0
52488.0,STARLINK-3892,PAYLOAD,2023-10-10 13:18:10,15.08851339,0.0001673,53.2175,54.6912,76.1016,284.0162,0.0005113,7.861e-05,0.0,0 STARLINK-3892,1 52488U 22049AP  23283.55428892  .00007861  00000-0  51130-3 0  9990,2 52488  53.2175  54.6912 0001673  76.1016 284.0162 15.08851339 79391,6917.846,95.437,540.868,538.553,0.0
52488.0,STARLINK-3892,PAYLOAD,2023-10-10 16:28:56,15.08857589,0.0001806,53.2171,54.0954,63.1038,297.0139,0.00067199,0.00010428,0.0,0 STARLINK-3892,1 52488U 22049AP  23283.68676760  .00010428  00000-0  67199-3 0  9998,2 52488  53.2171  54.0954 0001806  63.1038 297.0139 15.08857589 79251,6917.827,95.436,540.941,538.442,0.0
52488.0,STARLINK-3892,PAYLOAD,2023-10-11 13:08:57,15.08837285,0.0001205,53.2173,50.2306,78.6978,281.415,0.00016611,2.357e-05,0.0,0 STARLINK-3892,1 52488U 22049AP  23284.54789165  .00002357  00000-0  16611-3 0  9993,2 52488  53.2173  50.2306 0001205  78.6978 281.4150 15.08837285 79542,6917.889,95.438,540.587,538.92,0.0
52488.0,STARLINK-3892,PAYLOAD,2023-10-12 14:35:08,15.08846121,0.0001513,53.2171,45.4726,84.8419,275.2746,0.00035044,5.295e-05,0.0,0 STARLINK-3892,1 52488U 22049AP  23285.60773408  .00005295  00000-0  35044-3 0  9999,2 52488  53.2171  45.4726 0001513  84.8419 275.2746 15.08846121 79544,6917.862,95.437,540.773,538.68,0.0
52488.0,STARLINK-3892,PAYLOAD,2023-10-13 12:50:32,15.08840784,0.0001716,53.2186,41.3108,91.3301,268.7887,0.00020382,2.957e-05,0.0,0 STARLINK-3892,1 52488U 22049AP  23286.53509648  .00002957  00000-0  20382-3 0  9996,2 52488  53.2186  41.3108 0001716  91.3301 268.7887 15.08840784 79842,6917.878,95.438,540.93,538.556,0.0
52488.0,STARLINK-3892,PAYLOAD,2023-10-13 14:25:55,15.08843187,0.0001822,53.2188,41.0132,88.8276,271.2925,0.00021286,3.101e-05,0.0,0 STARLINK-3892,1 52488U 22049AP  23286.60133680  .00003101  00000-0  21286-3 0  9999,2 52488  53.2188  41.0132 0001822  88.8276 271.2925 15.08843187 79693,6917.871,95.437,540.996,538.475,0.0
52488.0,STARLINK-3892,PAYLOAD,2023-10-14 14:16:41,15.08861489,0.0001419,53.2173,36.5528,87.605,272.5105,0.00042746,6.526e-05,0.0,0 STARLINK-3892,1 52488U 22049AP  23287.59492550  .00006526  00000-0  42746-3 0  9990,2 52488  53.2173  36.5528 0001419  87.6050 272.5105 15.08861489 79840,6917.815,95.436,540.661,538.698,0.0
52488.0,STARLINK-3892,PAYLOAD,2023-10-14 23:49:00,15.08847441,0.0001114,53.2176,34.7666,83.2632,276.8487,0.00015256,2.141e-05,0.0,0 STARLINK-3892,1 52488U 22049AP  23287.99236821  .00002141  00000-0  15256-3 0  9996,2 52488  53.2176  34.7666 0001114  83.2632 276.8487 15.08847441 80064,6917.858,95.437,540.493,538.952,0.0
52488.0,STARLINK-3892,PAYLOAD,2023-10-15 12:32:06,15.08827549,0.0001499,53.2181,32.3892,102.3994,257.7166,-0.00017346,-3.047e-05,0.0,0 STARLINK-3892,1 52488U 22049AP  23288.52229986 -.00003047  00000-0 -17346-3 0  9990,2 52488  53.2181  32.3892 0001499 102.3994 257.7166 15.08827549 80143,6917.918,95.438,540.82,538.746,0.0
52488.0,STARLINK-3892,PAYLOAD,2023-10-15 14:07:29,15.08830602,0.0001368,53.2174,32.0938,102.5046,257.6099,-0.0001384,-2.489e-05,0.0,0 STARLINK-3892,1 52488U 22049AP  23288.58853767 -.00002489  00000-0 -13840-3 0  9990,2 52488  53.2174  32.0938 0001368 102.5046 257.6099 15.08830602 79997,6917.909,95.438,540.72,538.828,0.0
52488.0,STARLINK-3892,PAYLOAD,2023-10-16 07:36:44,15.08836145,0.0001347,53.2177,28.8225,106.5266,253.5874,0.00072759,0.00011309,0.0,0 STARLINK-3892,1 52488U 22049AP  23289.31718372  .00011309  00000-0  72759-3 0  9997,2 52488  53.2177  28.8225 0001347 106.5266 253.5874 15.08836145 80263,6917.892,95.438,540.689,538.825,0.0
52488.0,STARLINK-3892,PAYLOAD,2023-10-16 12:22:53,15.08845363,0.0001351,53.2176,27.9306,106.8455,253.2686,0.00087537,0.00013673,0.0,0 STARLINK-3892,1 52488U 22049AP  23289.51590277  .00013673  00000-0  87537-3 0  9997,2 52488  53.2176  27.9306 0001351 106.8455 253.2686 15.08845363 80136,6917.864,95.437,540.664,538.794,0.0
52488.0,STARLINK-3892,PAYLOAD,2023-10-17 12:13:40,15.08848996,0.0001293,53.2174,23.4698,104.5282,255.5854,0.00043179,6.592e-05,0.0,0 STARLINK-3892,1 52488U 22049AP  23290.50950146  .00006592  00000-0  43179-3 0  9999,2 52488  53.2174  23.4698 0001293 104.5282 255.5854 15.08848996 80448,6917.853,95.437,540.612,538.823,0.0
52488.0,STARLINK-3892,PAYLOAD,2023-10-17 23:21:22,15.08846832,0.0001807,53.2176,21.3876,102.5312,257.5883,0.00028049,4.18e-05,0.0,0 STARLINK-3892,1 52488U 22049AP  23290.97318076  .00004180  00000-0  28049-3 0  9990,2 52488  53.2176  21.3876 0001807 102.5312 257.5883 15.08846832 80359,6917.86,95.437,540.975,538.474,0.0
52488.0,STARLINK-3892,PAYLOAD,2023-10-18 12:04:27,15.08846249,0.0001388,53.2166,19.0101,100.8438,259.2711,0.0002076,3.018e-05,0.0,0 STARLINK-3892,1 52488U 22049AP  23291.50310049  .00003018  00000-0  20760-3 0  9993,2 52488  53.2166  19.0101 0001388 100.8438 259.2711 15.08846249 80594,6917.861,95.437,540.686,538.766,0.0
52488.0,STARLINK-3892,PAYLOAD,2023-10-18 15:15:14,15.08851404,0.0001429,53.2163,18.4145,100.7656,259.3498,0.00028741,4.291e-05,0.0,0 STARLINK-3892,1 52488U 22049AP  23291.63557877  .00004291  00000-0  28741-3 0  9990,2 52488  53.2163  18.4145 0001429 100.7656 259.3498 15.08851404 80456,6917.846,95.437,540.699,538.722,0.0
52488.0,STARLINK-3892,PAYLOAD,2023-10-19 11:55:14,15.0885335,0.0001454,53.2155,14.5467,95.4423,264.6735,0.00024495,3.614e-05,0.0,0 STARLINK-3892,1 52488U 22049AP  23292.49669611  .00003614  00000-0  24495-3 0  9995,2 52488  53.2155  14.5467 0001454  95.4423 264.6735 15.08853350 80580,6917.84,95.437,540.71,538.699,0.0
52488.0,STARLINK-3892,PAYLOAD,2023-10-19 23:02:56,15.08850422,0.0001615,53.2165,12.4679,82.2716,277.8459,0.00021478,3.133e-05,0.0,0 STARLINK-3892,1 52488U 22049AP  23292.96037710  .00003133  00000-0  21478-3 0  9990,2 52488  53.2165  12.4679 0001615  82.2716 277.8459 15.08850422 80813,6917.849,95.437,540.831,538.596,0.0
52488.0,STARLINK-3892,PAYLOAD,2023-10-20 11:46:02,15.08838144,0.0001691,53.2174,10.0862,109.6081,250.5094,-1.5214e-05,-5.3e-06,0.0,0 STARLINK-3892,1 52488U 22049AP  23293.49030204 -.00000530  00000-0 -15214-4 0  9992,2 52488  53.2174  10.0862 0001691 109.6081 250.5094 15.08838144 80892,6917.886,95.438,540.921,538.581,0.0
52488.0,STARLINK-3892,PAYLOAD,2023-10-20 14:56:48,15.08845646,0.0001602,53.2177,9.4898,112.7772,247.3389,0.00014305,1.99e-05,0.0,0 STARLINK-3892,1 52488U 22049AP  23293.62277886  .00001990  00000-0  14305-3 0  9994,2 52488  53.2177   9.4898 0001602 112.7772 247.3389 15.08845646 80751,6917.863,95.437,540.836,538.62,0.0
52488.0,STARLINK-3892,PAYLOAD,2023-10-21 11:36:49,15.08843853,0.0001711,53.2174,5.6289,85.1678,274.9509,0.00020764,3.018e-05,0.0,0 STARLINK-3892,1 52488U 22049AP  23294.48390431  .00003018  00000-0  20764-3 0  9990,2 52488  53.2174   5.6289 0001711  85.1678 274.9509 15.08843853 81040,6917.869,95.437,540.917,538.55,0.0
